ALOS (DAICHI)           
1 28931U 06002A   24080.87799282  .00002686  00000+0  50687-3 0  9997
2 28931  98.0270  35.9059 0002469  79.8667 280.2815 14.65276805968043
